[{"OBJECT_NAME":"STARLINK-4061","OBJECT_ID":"2022-086F","EPOCH":"2026-03-09T14:03:44.129952","MEAN_MOTION":15.08827445,"ECCENTRICITY":0.0001224,"INCLINATION":53.2169,"RA_OF_ASC_NODE":199.7689,"ARG_OF_PERICENTER":69.4442,"MEAN_ANOMALY":290.6682,"EPHEMERIS_TYPE":0,"CLASSIFICATION_TYPE":"U","NORAD_CAT_ID":53247,"ELEMENT_SET_NO":999,"REV_AT_EPOCH":20129,"BSTAR":-3.3711e-5,"MEAN_MOTION_DOT":-8.24e-6,"MEAN_MOTION_DDOT":0},{"OBJECT_NAME":"DELTA 1 DEB","OBJECT_ID":"1977-065DC","EPOCH":"2026-03-08T18:53:52.858176","MEAN_MOTION":13.67610044,"ECCENTRICITY":0.06541303,"INCLINATION":29.1038,"RA_OF_ASC_NODE":273.1071,"ARG_OF_PERICENTER":41.1554,"MEAN_ANOMALY":323.6515,"EPHEMERIS_TYPE":0,"CLASSIFICATION_TYPE":"U","NORAD_CAT_ID":10306,"ELEMENT_SET_NO":999,"REV_AT_EPOCH":37728,"BSTAR":0.00097809201,"MEAN_MOTION_DOT":3.989e-5,"MEAN_MOTION_DDOT":0}]
